{"type":"FeatureCollection","features":[{"type":"Feature","id":406050,"properties":{"id":406050,"name":"Comuna Atardeceres","urban":true},"geometry":{"type":"MultiPolygon","coordinates":[[[[-75.53647,5.04759],[-75.53622,5.04821],[-75.53412,5.04853],[-75.53466,5.04992],[-75.5346,5.05057],[-75.53501,5.05147],[-75.53395,5.05165],[-75.53251,5.05126],[-75.53208,5.0514],[-75.53121,5.05059],[-75.52907,5.04788],[-75.52912,5.04761],[-75.53038,5.04628],[-75.53101,5.04485],[-75.53033,5.04473],[-75.53104,5.04394],[-75.53166,5.04359],[-75.53254,5.04487],[-75.53281,5.046],[-75.53292,5.04568],[-75.53366,5.04544],[-75.53399,5.04562],[-75.53398,5.04611],[-75.53319,5.04697],[-75.53287,5.04814],[-75.53297,5.04929],[-75.53332,5.04966],[-75.53322,5.04784],[-75.53429,5.04722],[-75.53449,5.04687],[-75.53513,5.04677],[-75.53563,5.04629],[-75.53598,5.04643],[-75.53637,5.04694],[-75.53647,5.04759]]],[[[-75.53203,5.05459],[-75.53078,5.05588],[-75.52814,5.05764],[-75.52727,5.059],[-75.5269,5.06011],[-75.52666,5.06184],[-75.52555,5.06266],[-75.52543,5.06437],[-75.52419,5.06739],[-75.52423,5.06831],[-75.52372,5.0684],[-75.52449,5.07031],[-75.52482,5.07173],[-75.52462,5.07197],[-75.52303,5.07205],[-75.52319,5.07268],[-75.52277,5.07302],[-75.52303,5.07341],[-75.52282,5.07354],[-75.5203,5.0735],[-75.51987,5.07293],[-75.51981,5.0722],[-75.51917,5.07224],[-75.51919,5.07288],[-75.51852,5.0729],[-75.51865,5.07589],[-75.51802,5.0763],[-75.51796,5.07491],[-75.51728,5.07486],[-75.5162,5.0761],[-75.51568,5.07593],[-75.5153,5.07635],[-75.51513,5.07698],[-75.51519,5.07787],[-75.51486,5.07906],[-75.51461,5.07912],[-75.51394,5.0788],[-75.51362,5.07908],[-75.51447,5.07977],[-75.51447,5.08053],[-75.51563,5.08029],[-75.51637,5.0808],[-75.51656,5.08117],[-75.51797,5.0816],[-75.51868,5.08143],[-75.51905,5.08095],[-75.51885,5.08036],[-75.51905,5.08006],[-75.51996,5.07958],[-75.52041,5.07961],[-75.52236,5.08064],[-75.52212,5.08186],[-75.52226,5.08235],[-75.52314,5.08325],[-75.52327,5.08387],[-75.52415,5.08458],[-75.52401,5.08532],[-75.52446,5.08624],[-75.52529,5.08696],[-75.52563,5.08767],[-75.52552,5.08886],[-75.52509,5.08953],[-75.52494,5.09026],[-75.52503,5.09068],[-75.52545,5.09063],[-75.52762,5.08954],[-75.5281,5.08995],[-75.52828,5.09038],[-75.52816,5.09136],[-75.52836,5.09182],[-75.52819,5.09172],[-75.52736,5.09202],[-75.52676,5.09279],[-75.52589,5.09281],[-75.52568,5.09299],[-75.52557,5.0933],[-75.52594,5.09347],[-75.52623,5.094],[-75.52617,5.09424],[-75.52583,5.09426],[-75.52547,5.09395],[-75.52502,5.09421],[-75.52555,5.09458],[-75.52555,5.09559],[-75.52644,5.09559],[-75.52634,5.09525],[-75.52651,5.09487],[-75.52701,5.09523],[-75.52723,5.09499],[-75.52757,5.0951],[-75.52788,5.09487],[-75.52795,5.09503],[-75.5283,5.09456],[-75.52836,5.09483],[-75.52954,5.09358],[-75.53044,5.09322],[-75.53159,5.09244],[-75.53152,5.0928],[-75.53,5.09392],[-75.53115,5.09503],[-75.52999,5.09554],[-75.52873,5.09514],[-75.52676,5.0958],[-75.52675,5.0961],[-75.52693,5.09617],[-75.52781,5.09581],[-75.52772,5.0968],[-75.52719,5.0965],[-75.52759,5.09695],[-75.52745,5.09736],[-75.52791,5.09722],[-75.52776,5.09792],[-75.52816,5.09806],[-75.52874,5.09697],[-75.52918,5.09706],[-75.52951,5.09689],[-75.52988,5.096],[-75.53054,5.09585],[-75.53062,5.096],[-75.53016,5.09622],[-75.53094,5.09632],[-75.53112,5.09537],[-75.53171,5.09534],[-75.53248,5.09325],[-75.53208,5.09194],[-75.53135,5.09082],[-75.53189,5.08945],[-75.53128,5.08873],[-75.53092,5.08725],[-75.53094,5.08532],[-75.53054,5.084],[-75.53039,5.0827],[-75.53044,5.08174],[-75.53082,5.08053],[-75.53229,5.07757],[-75.53212,5.07671],[-75.53226,5.07446],[-75.53276,5.07454],[-75.53309,5.07416],[-75.53327,5.07485],[-75.53381,5.07483],[-75.53565,5.07564],[-75.53604,5.07533],[-75.53745,5.07568],[-75.53733,5.07683],[-75.53777,5.07738],[-75.5384,5.07714],[-75.53824,5.07533],[-75.53854,5.07497],[-75.53923,5.07517],[-75.53949,5.07491],[-75.53923,5.07377],[-75.53852,5.07341],[-75.53772,5.07418],[-75.53793,5.07438],[-75.53726,5.0749],[-75.53616,5.07482],[-75.53622,5.07409],[-75.53579,5.07349],[-75.53533,5.07174],[-75.53545,5.07146],[-75.53394,5.07205],[-75.53295,5.07218],[-75.53266,5.07095],[-75.53219,5.06996],[-75.53551,5.06769],[-75.53576,5.06711],[-75.53751,5.06623],[-75.53794,5.0654],[-75.53881,5.0645],[-75.5386,5.06425],[-75.5385,5.06339],[-75.53809,5.06315],[-75.53776,5.06137],[-75.53701,5.06122],[-75.53678,5.06074],[-75.53558,5.06088],[-75.53493,5.06117],[-75.53259,5.061],[-75.53131,5.06152],[-75.53034,5.06091],[-75.53,5.06047],[-75.52949,5.05955],[-75.52949,5.05915],[-75.5302,5.05903],[-75.53033,5.05764],[-75.5307,5.05742],[-75.5308,5.05688],[-75.53245,5.05563],[-75.53315,5.0557],[-75.53313,5.05509],[-75.53203,5.05459]]],[[[-75.55175,5.10066],[-75.55142,5.10003],[-75.55154,5.09894],[-75.55137,5.0982],[-75.55012,5.09618],[-75.55084,5.09416],[-75.55132,5.09352],[-75.55132,5.09289],[-75.55097,5.09227],[-75.551,5.09189],[-75.54798,5.09088],[-75.54644,5.0901],[-75.54336,5.09095],[-75.54382,5.09162],[-75.54714,5.09388],[-75.54765,5.09461],[-75.54788,5.09598],[-75.54898,5.09804],[-75.54901,5.09866],[-75.55032,5.09938],[-75.55061,5.10032],[-75.55116,5.10069],[-75.55168,5.10085],[-75.55175,5.10066]]]]}},{"type":"Feature","id":12840857,"properties":{"id":12840857,"name":"Comuna Ciudadela del Norte","urban":true},"geometry":{"type":"Polygon","coordinates":[[[-75.48617,5.0823],[-75.48691,5.08157],[-75.48691,5.08124],[-75.48771,5.08098],[-75.48755,5.08041],[-75.48804,5.08022],[-75.48804,5.07979],[-75.48848,5.07889],[-75.48896,5.0788],[-75.48896,5.07733],[-75.48954,5.07734],[-75.49008,5.07622],[-75.49067,5.076],[-75.49025,5.07482],[-75.49118,5.07388],[-75.49117,5.07323],[-75.49242,5.07239],[-75.49292,5.07237],[-75.4931,5.07203],[-75.4928,5.07175],[-75.49341,5.07124],[-75.49391,5.07103],[-75.4952,5.07144],[-75.49566,5.07084],[-75.49646,5.07091],[-75.49673,5.07073],[-75.49713,5.07013],[-75.49881,5.06981],[-75.49961,5.07042],[-75.50004,5.07036],[-75.50036,5.07059],[-75.50123,5.07018],[-75.50164,5.07059],[-75.5024,5.07089],[-75.50322,5.07071],[-75.50346,5.07081],[-75.50292,5.07112],[-75.50292,5.07206],[-75.50348,5.07186],[-75.50495,5.07233],[-75.50531,5.07211],[-75.505,5.07131],[-75.50507,5.07095],[-75.50581,5.07039],[-75.50644,5.07036],[-75.50677,5.07067],[-75.50691,5.07134],[-75.50715,5.0716],[-75.50837,5.07182],[-75.5085,5.07233],[-75.50922,5.07264],[-75.50934,5.07409],[-75.51003,5.07429],[-75.51052,5.07507],[-75.51111,5.07537],[-75.51124,5.07643],[-75.51202,5.078],[-75.51171,5.07816],[-75.51186,5.07868],[-75.51287,5.07968],[-75.51295,5.08019],[-75.51363,5.08044],[-75.51402,5.08012],[-75.51447,5.08053],[-75.5142,5.08177],[-75.51443,5.08204],[-75.51452,5.08333],[-75.515,5.08466],[-75.51478,5.08589],[-75.51413,5.08694],[-75.51285,5.08728],[-75.51255,5.08758],[-75.51225,5.0885],[-75.51346,5.09358],[-75.51537,5.09509],[-75.51565,5.0959],[-75.51565,5.09679],[-75.51623,5.0985],[-75.516,5.09979],[-75.51614,5.10039],[-75.51571,5.10119],[-75.51519,5.10161],[-75.5145,5.10163],[-75.51268,5.1045],[-75.51133,5.10489],[-75.51038,5.10434],[-75.51019,5.10322],[-75.51095,5.1001],[-75.51222,5.09668],[-75.51286,5.09602],[-75.51218,5.09489],[-75.51153,5.09521],[-75.51062,5.09531],[-75.50946,5.09504],[-75.50856,5.0946],[-75.50798,5.09384],[-75.50763,5.09184],[-75.50656,5.08892],[-75.50642,5.08713],[-75.50829,5.08659],[-75.50841,5.08612],[-75.50938,5.08555],[-75.50968,5.08509],[-75.50887,5.08438],[-75.50913,5.084],[-75.50967,5.08379],[-75.5106,5.08428],[-75.51193,5.08289],[-75.51191,5.08238],[-75.5123,5.08199],[-75.51238,5.08085],[-75.51169,5.08062],[-75.51126,5.07951],[-75.51017,5.07866],[-75.51021,5.07721],[-75.50969,5.07661],[-75.5085,5.07591],[-75.50802,5.07623],[-75.50778,5.07826],[-75.50741,5.07851],[-75.50704,5.07836],[-75.50683,5.07884],[-75.50565,5.07855],[-75.504,5.07921],[-75.504,5.07864],[-75.50363,5.07866],[-75.50312,5.08023],[-75.50085,5.08027],[-75.49976,5.08051],[-75.49948,5.08068],[-75.49921,5.08149],[-75.49784,5.0818],[-75.49766,5.08105],[-75.49711,5.08119],[-75.49683,5.08176],[-75.49648,5.08166],[-75.49676,5.08072],[-75.49619,5.08099],[-75.49557,5.08009],[-75.49578,5.08126],[-75.49629,5.08255],[-75.49606,5.08268],[-75.49579,5.08334],[-75.49579,5.08402],[-75.49519,5.08517],[-75.49506,5.08534],[-75.49454,5.08511],[-75.4941,5.08566],[-75.49404,5.0863],[-75.4948,5.08675],[-75.49451,5.0884],[-75.49377,5.08996],[-75.49276,5.09096],[-75.49215,5.09131],[-75.49057,5.09152],[-75.48815,5.09285],[-75.48684,5.09287],[-75.48546,5.09365],[-75.48461,5.09363],[-75.48458,5.09335],[-75.48499,5.09321],[-75.48528,5.09277],[-75.48501,5.09212],[-75.48532,5.09056],[-75.48519,5.08937],[-75.48574,5.08856],[-75.48654,5.0882],[-75.48676,5.0876],[-75.48642,5.08644],[-75.48652,5.08608],[-75.48719,5.08546],[-75.48711,5.08481],[-75.48617,5.0823]]]}},{"type":"Feature","id":406045,"properties":{"id":406045,"name":"Comuna Cumanday","urban":true},"geometry":{"type":"Polygon","coordinates":[[[-75.51981,5.0722],[-75.51962,5.07025],[-75.51389,5.07041],[-75.51262,5.06934],[-75.51028,5.06931],[-75.50935,5.06811],[-75.50786,5.06743],[-75.50714,5.06649],[-75.50815,5.06552],[-75.51017,5.06506],[-75.51066,5.06398],[-75.5123,5.06303],[-75.51291,5.0623],[-75.51276,5.06147],[-75.51292,5.06122],[-75.51372,5.06129],[-75.51421,5.0616],[-75.51461,5.06288],[-75.51549,5.06364],[-75.51599,5.06357],[-75.51685,5.0641],[-75.51739,5.06395],[-75.51749,5.06453],[-75.51882,5.06447],[-75.51896,5.06698],[-75.52387,5.06685],[-75.52464,5.06647],[-75.52419,5.06739],[-75.52423,5.06831],[-75.52372,5.0684],[-75.52449,5.07031],[-75.52479,5.07177],[-75.52462,5.07197],[-75.52303,5.07205],[-75.52319,5.07268],[-75.52277,5.07302],[-75.52303,5.07341],[-75.52282,5.07354],[-75.5203,5.0735],[-75.51987,5.07293],[-75.51981,5.0722]]]}},{"type":"Feature","id":406047,"properties":{"id":406047,"name":"Comuna Ecoturística Cerro de Oro","urban":true},"geometry":{"type":"Polygon","coordinates":[[[-75.47279,5.07081],[-75.4731,5.07147],[-75.47321,5.07412],[-75.47256,5.07416],[-75.47263,5.07527],[-75.46854,5.07496],[-75.46852,5.07336],[-75.46899,5.07291],[-75.46925,5.07196],[-75.46977,5.07139],[-75.46987,5.07076],[-75.47035,5.06995],[-75.47094,5.06938],[-75.47088,5.06855],[-75.47115,5.06793],[-75.47112,5.06739],[-75.47128,5.06708],[-75.47198,5.06665],[-75.47188,5.06536],[-75.47232,5.06513],[-75.47286,5.06542],[-75.47337,5.0654],[-75.47416,5.06499],[-75.47405,5.0638],[-75.47345,5.06279],[-75.47284,5.06254],[-75.47227,5.06392],[-75.47191,5.06424],[-75.47148,5.06429],[-75.47169,5.06462],[-75.47152,5.06502],[-75.47091,5.06514],[-75.47045,5.06488],[-75.46897,5.06466],[-75.4683,5.06505],[-75.46683,5.06509],[-75.46584,5.06453],[-75.46623,5.06373],[-75.46556,5.06251],[-75.46541,5.06156],[-75.46668,5.06085],[-75.46607,5.05852],[-75.46717,5.05561],[-75.46893,5.05578],[-75.46948,5.05624],[-75.47013,5.05631],[-75.47184,5.05543],[-75.47276,5.05542],[-75.47377,5.05471],[-75.47451,5.05448],[-75.47421,5.0535],[-75.47387,5.05339],[-75.47343,5.0537],[-75.47335,5.05287],[-75.47273,5.05184],[-75.47242,5.05222],[-75.47228,5.05291],[-75.47167,5.05335],[-75.47091,5.05312],[-75.47095,5.05244],[-75.47148,5.05212],[-75.47177,5.05141],[-75.47174,5.0505],[-75.47123,5.04949],[-75.47125,5.04895],[-75.47172,5.04816],[-75.47188,5.04662],[-75.47259,5.04499],[-75.47156,5.04404],[-75.47201,5.04362],[-75.47255,5.04357],[-75.47275,5.04309],[-75.4736,5.04247],[-75.47387,5.04247],[-75.47435,5.04249],[-75.47419,5.04355],[-75.47438,5.04431],[-75.47642,5.04641],[-75.47753,5.04811],[-75.47721,5.04823],[-75.4771,5.04864],[-75.47825,5.04889],[-75.47816,5.04819],[-75.47873,5.04828],[-75.47906,5.04794],[-75.47932,5.04818],[-75.48031,5.04646],[-75.48082,5.0462],[-75.4813,5.04624],[-75.48202,5.04677],[-75.48277,5.04791],[-75.48292,5.0483],[-75.48282,5.0492],[-75.484,5.05096],[-75.48449,5.05243],[-75.4845,5.05355],[-75.4849,5.05509],[-75.48443,5.05509],[-75.48422,5.05456],[-75.48374,5.05447],[-75.48381,5.05298],[-75.48339,5.05195],[-75.48271,5.05177],[-75.48231,5.05195],[-75.4826,5.05379],[-75.48246,5.05439],[-75.48256,5.05539],[-75.48334,5.05787],[-75.4832,5.0581],[-75.4834,5.05864],[-75.48298,5.05905],[-75.48302,5.05953],[-75.48282,5.05993],[-75.48339,5.06021],[-75.48402,5.06105],[-75.48519,5.06187],[-75.48555,5.06403],[-75.48514,5.06434],[-75.48444,5.0655],[-75.48397,5.06858],[-75.48318,5.06931],[-75.48238,5.0715],[-75.48236,5.07171],[-75.48336,5.07154],[-75.4833,5.07177],[-75.48262,5.07229],[-75.48206,5.07229],[-75.48189,5.07181],[-75.48107,5.071],[-75.47971,5.0709],[-75.47978,5.06982],[-75.48043,5.06831],[-75.48032,5.06798],[-75.47989,5.0679],[-75.47929,5.06818],[-75.47789,5.06938],[-75.47782,5.06993],[-75.4769,5.07023],[-75.47604,5.06985],[-75.47544,5.06982],[-75.47437,5.07006],[-75.47279,5.07081]]]}},{"type":"Feature","id":406049,"properties":{"id":406049,"name":"Comuna La Estación","urban":true},"geometry":{"type":"Polygon","coordinates":[[[-75.50912,5.06805],[-75.50882,5.06776],[-75.50786,5.06743],[-75.50669,5.06608],[-75.50257,5.06564],[-75.50322,5.06412],[-75.5027,5.06345],[-75.50288,5.0626],[-75.50199,5.06262],[-75.50184,5.06277],[-75.50138,5.06228],[-75.50328,5.06132],[-75.50355,5.0611],[-75.50333,5.0607],[-75.50371,5.06048],[-75.50356,5.06026],[-75.50315,5.06038],[-75.50324,5.05989],[-75.5028,5.05992],[-75.50225,5.0596],[-75.50123,5.05995],[-75.50134,5.05961],[-75.50184,5.05927],[-75.50034,5.05793],[-75.49993,5.05806],[-75.49978,5.05911],[-75.4993,5.05912],[-75.49895,5.05999],[-75.49785,5.06099],[-75.49769,5.06083],[-75.49724,5.06107],[-75.49722,5.06212],[-75.49581,5.06349],[-75.49625,5.06396],[-75.49538,5.06456],[-75.49575,5.06473],[-75.49634,5.06466],[-75.49603,5.06532],[-75.49545,5.06512],[-75.49507,5.06564],[-75.49425,5.06601],[-75.4937,5.06673],[-75.49348,5.06681],[-75.49304,5.06654],[-75.49301,5.06697],[-75.49274,5.06706],[-75.49281,5.06586],[-75.49265,5.06563],[-75.49209,5.06545],[-75.49223,5.06465],[-75.49199,5.0639],[-75.49037,5.06464],[-75.48949,5.06443],[-75.48927,5.06394],[-75.48762,5.06406],[-75.4879,5.06431],[-75.48883,5.06445],[-75.4917,5.06633],[-75.49247,5.06729],[-75.49284,5.06741],[-75.49414,5.06977],[-75.49522,5.06992],[-75.49603,5.07045],[-75.49628,5.07089],[-75.49673,5.07073],[-75.49713,5.07013],[-75.49852,5.06979],[-75.49907,5.06987],[-75.49961,5.07042],[-75.50004,5.07036],[-75.50036,5.07059],[-75.50123,5.07018],[-75.50164,5.07059],[-75.5024,5.07089],[-75.50322,5.07071],[-75.50346,5.07081],[-75.50292,5.07112],[-75.50292,5.07206],[-75.50348,5.07186],[-75.50465,5.07231],[-75.50517,5.0723],[-75.50531,5.07186],[-75.505,5.07131],[-75.50507,5.07095],[-75.50581,5.07039],[-75.50644,5.07036],[-75.50677,5.07067],[-75.50691,5.07134],[-75.50748,5.07178],[-75.50732,5.07122],[-75.50778,5.07001],[-75.509,5.06899],[-75.50856,5.06873],[-75.50879,5.06819],[-75.50912,5.06805]]]}},{"type":"Feature","id":406048,"properties":{"id":406048,"name":"Comuna La Fuente","urban":true},"geometry":{"type":"Polygon","coordinates":[[[-75.50055,5.058],[-75.50184,5.05927],[-75.50134,5.05961],[-75.50123,5.05995],[-75.50225,5.0596],[-75.5028,5.05992],[-75.50324,5.05989],[-75.50315,5.06038],[-75.50356,5.06026],[-75.50371,5.06048],[-75.50333,5.0607],[-75.50355,5.0611],[-75.50328,5.06132],[-75.50138,5.06228],[-75.50184,5.06277],[-75.50199,5.06262],[-75.50288,5.0626],[-75.5027,5.06345],[-75.50322,5.06412],[-75.50257,5.06564],[-75.50659,5.06605],[-75.50714,5.06649],[-75.50815,5.06552],[-75.51017,5.06506],[-75.51066,5.06398],[-75.5123,5.06303],[-75.51291,5.0623],[-75.51276,5.06147],[-75.51292,5.06122],[-75.51372,5.06129],[-75.51421,5.0616],[-75.51461,5.06288],[-75.51549,5.06364],[-75.51599,5.06357],[-75.51685,5.0641],[-75.51739,5.06395],[-75.51766,5.06357],[-75.51748,5.06296],[-75.51685,5.06281],[-75.51749,5.06208],[-75.51753,5.06176],[-75.51781,5.06164],[-75.5176,5.06113],[-75.51699,5.061],[-75.51624,5.06053],[-75.5165,5.05873],[-75.51678,5.05828],[-75.51671,5.05705],[-75.51627,5.05622],[-75.51637,5.05507],[-75.51551,5.05564],[-75.51504,5.05532],[-75.51541,5.05473],[-75.51675,5.05354],[-75.51675,5.05308],[-75.51556,5.05374],[-75.51544,5.0533],[-75.51361,5.0531],[-75.51281,5.05352],[-75.51217,5.05349],[-75.51169,5.0527],[-75.51057,5.05193],[-75.50987,5.0524],[-75.50955,5.05286],[-75.50973,5.05311],[-75.50873,5.05397],[-75.50852,5.05527],[-75.50756,5.05471],[-75.50754,5.05499],[-75.50722,5.05507],[-75.50606,5.05436],[-75.50514,5.05509],[-75.50495,5.05439],[-75.50363,5.05418],[-75.5032,5.0544],[-75.50271,5.05389],[-75.50113,5.05508],[-75.50101,5.05608],[-75.50203,5.05677],[-75.50199,5.05696],[-75.5018,5.05717],[-75.50159,5.05691],[-75.50099,5.05721],[-75.50055,5.058]]]}},{"type":"Feature","id":406056,"properties":{"id":406056,"name":"Comuna La Macarena","urban":true},"geometry":{"type":"Polygon","coordinates":[[[-75.52464,5.06647],[-75.52387,5.06685],[-75.51896,5.06698],[-75.51882,5.06447],[-75.51749,5.06453],[-75.51739,5.06395],[-75.51766,5.06357],[-75.51758,5.0631],[-75.51685,5.06281],[-75.51749,5.06208],[-75.51753,5.06176],[-75.51781,5.06164],[-75.5176,5.06113],[-75.51699,5.061],[-75.51624,5.06053],[-75.5165,5.05873],[-75.51678,5.05828],[-75.51671,5.05705],[-75.51627,5.05622],[-75.51637,5.05507],[-75.51769,5.05466],[-75.51805,5.05437],[-75.51859,5.05336],[-75.51933,5.05272],[-75.52001,5.05299],[-75.52069,5.05422],[-75.52074,5.05541],[-75.52167,5.0576],[-75.52194,5.05773],[-75.52215,5.05752],[-75.52221,5.05668],[-75.52262,5.05645],[-75.52291,5.05656],[-75.52308,5.05634],[-75.52318,5.05584],[-75.52269,5.0554],[-75.52253,5.05408],[-75.5227,5.05347],[-75.52364,5.05342],[-75.52412,5.05379],[-75.5244,5.05364],[-75.52387,5.05257],[-75.52414,5.0516],[-75.52374,5.05104],[-75.5222,5.0508],[-75.52193,5.04992],[-75.523,5.04871],[-75.52413,5.04825],[-75.52484,5.04818],[-75.52589,5.04677],[-75.52596,5.04628],[-75.52573,5.04568],[-75.52596,5.04241],[-75.52507,5.04167],[-75.52497,5.04102],[-75.52514,5.04023],[-75.52553,5.03972],[-75.52553,5.03864],[-75.52604,5.03782],[-75.52579,5.03743],[-75.52647,5.03662],[-75.52678,5.0369],[-75.5273,5.03684],[-75.52742,5.03784],[-75.52776,5.03798],[-75.52695,5.03882],[-75.52724,5.03983],[-75.52679,5.04073],[-75.5268,5.04112],[-75.52733,5.04208],[-75.52719,5.0425],[-75.5275,5.04255],[-75.52756,5.0419],[-75.52781,5.04185],[-75.52828,5.04249],[-75.52853,5.04231],[-75.52889,5.04241],[-75.52946,5.04309],[-75.52913,5.04355],[-75.52929,5.04407],[-75.52971,5.04448],[-75.53101,5.04485],[-75.53038,5.04628],[-75.52912,5.04761],[-75.52907,5.04788],[-75.53121,5.05059],[-75.53038,5.05151],[-75.53071,5.05171],[-75.5312,5.05253],[-75.53203,5.05459],[-75.53078,5.05588],[-75.52835,5.05742],[-75.52734,5.05884],[-75.5269,5.06011],[-75.52666,5.06184],[-75.5255,5.06277],[-75.52543,5.06437],[-75.52464,5.06647]]]}},{"type":"Feature","id":12840867,"properties":{"id":12840867,"name":"Comuna Nuevo Horizonte","urban":true},"geometry":{"type":"Polygon","coordinates":[[[-75.48762,5.06406],[-75.4879,5.06431],[-75.48883,5.06445],[-75.4917,5.06633],[-75.49247,5.06729],[-75.49284,5.06741],[-75.49414,5.06977],[-75.49522,5.06992],[-75.49603,5.07045],[-75.49616,5.07084],[-75.49566,5.07084],[-75.49543,5.07127],[-75.49505,5.07146],[-75.49377,5.07105],[-75.49283,5.07169],[-75.4931,5.07203],[-75.49292,5.07237],[-75.49242,5.07239],[-75.4912,5.07319],[-75.49118,5.07388],[-75.49025,5.07482],[-75.49067,5.076],[-75.49008,5.07622],[-75.48954,5.07734],[-75.48896,5.07733],[-75.48896,5.0788],[-75.48848,5.07889],[-75.48804,5.07979],[-75.48804,5.08022],[-75.48755,5.08041],[-75.48771,5.08098],[-75.48691,5.08124],[-75.48691,5.08157],[-75.48617,5.0823],[-75.48564,5.08207],[-75.48486,5.08229],[-75.48463,5.08187],[-75.48468,5.0813],[-75.48334,5.07995],[-75.48344,5.07936],[-75.4843,5.07785],[-75.48552,5.07748],[-75.48575,5.07714],[-75.4856,5.07556],[-75.48421,5.07553],[-75.48354,5.07467],[-75.48146,5.07443],[-75.48149,5.07422],[-75.48206,5.07229],[-75.48262,5.07229],[-75.4833,5.07177],[-75.48336,5.07154],[-75.48236,5.07171],[-75.48238,5.0715],[-75.48318,5.06931],[-75.48397,5.06858],[-75.48444,5.0655],[-75.48479,5.06483],[-75.48555,5.06403],[-75.48664,5.0636],[-75.48698,5.06401],[-75.48762,5.06406]]]}},{"type":"Feature","id":406052,"properties":{"id":406052,"name":"Comuna Palogrande","urban":true},"geometry":{"type":"Polygon","coordinates":[[[-75.49905,5.05981],[-75.4993,5.05912],[-75.49978,5.05911],[-75.49993,5.05806],[-75.50055,5.058],[-75.50123,5.05707],[-75.50159,5.05691],[-75.5018,5.05717],[-75.50199,5.05696],[-75.50203,5.05677],[-75.50101,5.05608],[-75.50097,5.05574],[-75.50013,5.0565],[-75.49882,5.05681],[-75.49821,5.05672],[-75.49644,5.05695],[-75.49554,5.05762],[-75.49509,5.05761],[-75.49498,5.05739],[-75.49412,5.05739],[-75.49277,5.05824],[-75.49327,5.05755],[-75.49363,5.05636],[-75.49502,5.05539],[-75.49444,5.05507],[-75.49317,5.05331],[-75.49312,5.05234],[-75.49349,5.05202],[-75.4943,5.05194],[-75.4957,5.05039],[-75.49609,5.05069],[-75.49674,5.05056],[-75.49722,5.05118],[-75.49731,5.05003],[-75.49814,5.04983],[-75.49867,5.049],[-75.49851,5.04834],[-75.49801,5.04815],[-75.49803,5.04791],[-75.49879,5.04784],[-75.49971,5.04691],[-75.50005,5.04679],[-75.49985,5.04415],[-75.49889,5.0436],[-75.49872,5.04382],[-75.49782,5.04298],[-75.49731,5.04327],[-75.49688,5.04278],[-75.49501,5.04217],[-75.49347,5.04183],[-75.49281,5.04197],[-75.49245,5.0415],[-75.49127,5.04157],[-75.49019,5.04229],[-75.48961,5.04224],[-75.48802,5.04128],[-75.48549,5.04042],[-75.48475,5.03996],[-75.48343,5.03863],[-75.48291,5.03752],[-75.48171,5.03781],[-75.48052,5.03746],[-75.48035,5.03721],[-75.48015,5.03743],[-75.47934,5.03726],[-75.47926,5.03761],[-75.4789,5.03783],[-75.47852,5.03766],[-75.47801,5.03797],[-75.47777,5.03776],[-75.47724,5.03813],[-75.47622,5.03828],[-75.47602,5.0386],[-75.47605,5.03905],[-75.47463,5.03951],[-75.47442,5.04011],[-75.47451,5.0419],[-75.47422,5.04291],[-75.47438,5.04431],[-75.47642,5.04641],[-75.47753,5.04811],[-75.47721,5.04823],[-75.4771,5.04864],[-75.47825,5.04889],[-75.47816,5.04819],[-75.47873,5.04828],[-75.47906,5.04794],[-75.47932,5.04818],[-75.48031,5.04646],[-75.48082,5.0462],[-75.4813,5.04624],[-75.48202,5.04677],[-75.48282,5.04799],[-75.48282,5.0492],[-75.484,5.05096],[-75.48449,5.05243],[-75.4845,5.05355],[-75.4849,5.05509],[-75.48443,5.05509],[-75.48422,5.05456],[-75.48374,5.05447],[-75.48381,5.05298],[-75.48339,5.05195],[-75.48271,5.05177],[-75.48231,5.05195],[-75.4826,5.05379],[-75.48246,5.05439],[-75.48256,5.05539],[-75.48334,5.05787],[-75.4832,5.0581],[-75.4834,5.05864],[-75.48298,5.05905],[-75.48302,5.05953],[-75.48282,5.05993],[-75.48339,5.06021],[-75.48402,5.06105],[-75.48519,5.06187],[-75.48555,5.06403],[-75.48664,5.0636],[-75.48704,5.06402],[-75.48927,5.06394],[-75.48949,5.06443],[-75.49037,5.06464],[-75.49199,5.0639],[-75.49223,5.06465],[-75.49209,5.06545],[-75.49276,5.06571],[-75.49274,5.06706],[-75.49288,5.06704],[-75.49291,5.06663],[-75.4937,5.06673],[-75.49425,5.06601],[-75.49507,5.06564],[-75.49545,5.06512],[-75.49603,5.06532],[-75.49634,5.06466],[-75.49575,5.06473],[-75.49538,5.06456],[-75.49625,5.06396],[-75.49581,5.06349],[-75.49722,5.06212],[-75.49724,5.06107],[-75.49769,5.06083],[-75.49785,5.06099],[-75.49905,5.05981]]]}},{"type":"Feature","id":406054,"properties":{"id":406054,"name":"Comuna San José","urban":true},"geometry":{"type":"Polygon","coordinates":[[[-75.51796,5.07491],[-75.51795,5.07618],[-75.51816,5.07631],[-75.51865,5.07589],[-75.51852,5.0729],[-75.51919,5.07288],[-75.51917,5.07224],[-75.51981,5.0722],[-75.51962,5.07025],[-75.51389,5.07041],[-75.51262,5.06934],[-75.51047,5.06938],[-75.50935,5.06811],[-75.50879,5.06819],[-75.50856,5.06873],[-75.509,5.06899],[-75.50778,5.07001],[-75.50732,5.07122],[-75.50741,5.07165],[-75.50837,5.07182],[-75.5085,5.07233],[-75.50922,5.07264],[-75.50934,5.07409],[-75.51003,5.07429],[-75.51052,5.07507],[-75.51111,5.07537],[-75.51124,5.07643],[-75.51202,5.078],[-75.51171,5.07816],[-75.51186,5.07868],[-75.51287,5.07968],[-75.51295,5.08019],[-75.51363,5.08044],[-75.51402,5.08012],[-75.51447,5.08053],[-75.51447,5.07977],[-75.51362,5.07908],[-75.51394,5.0788],[-75.51461,5.07912],[-75.51486,5.07906],[-75.51519,5.07787],[-75.51513,5.07698],[-75.5153,5.07635],[-75.51568,5.07593],[-75.5162,5.0761],[-75.51728,5.07486],[-75.51796,5.07491]]]}},{"type":"Feature","id":406055,"properties":{"id":406055,"name":"Comuna Tesorito","urban":true},"geometry":{"type":"Polygon","coordinates":[[[-75.47525,5.02741],[-75.47578,5.02781],[-75.47653,5.02949],[-75.47695,5.02996],[-75.47734,5.03013],[-75.47804,5.03002],[-75.47843,5.03041],[-75.47858,5.0309],[-75.47841,5.03183],[-75.4787,5.03193],[-75.47921,5.0317],[-75.47967,5.03189],[-75.48098,5.03478],[-75.48202,5.03519],[-75.48276,5.0367],[-75.48291,5.03752],[-75.48171,5.03781],[-75.48052,5.03746],[-75.48035,5.03721],[-75.48015,5.03743],[-75.47934,5.03726],[-75.47926,5.03761],[-75.4789,5.03783],[-75.47852,5.03766],[-75.47801,5.03797],[-75.47777,5.03776],[-75.47724,5.03813],[-75.47622,5.03828],[-75.47602,5.0386],[-75.47605,5.03905],[-75.47463,5.03951],[-75.47442,5.04011],[-75.47452,5.04162],[-75.47435,5.04249],[-75.4736,5.04247],[-75.47262,5.04321],[-75.47255,5.04357],[-75.47201,5.04362],[-75.47127,5.04444],[-75.47071,5.04434],[-75.47118,5.04416],[-75.47151,5.04341],[-75.47224,5.0432],[-75.47156,5.04282],[-75.47137,5.0425],[-75.47176,5.04242],[-75.47216,5.04192],[-75.47314,5.04128],[-75.47349,5.04022],[-75.47327,5.03978],[-75.47168,5.03986],[-75.47167,5.03923],[-75.47104,5.03918],[-75.47064,5.03886],[-75.47048,5.03859],[-75.47078,5.03845],[-75.47121,5.03863],[-75.47138,5.03788],[-75.472,5.03746],[-75.47109,5.03701],[-75.46998,5.0376],[-75.46867,5.03798],[-75.46748,5.03873],[-75.46608,5.03892],[-75.46519,5.03884],[-75.46418,5.03924],[-75.46333,5.03843],[-75.4621,5.03836],[-75.46182,5.03934],[-75.46205,5.03999],[-75.46124,5.04042],[-75.46158,5.04127],[-75.46111,5.04148],[-75.46111,5.04178],[-75.46202,5.04189],[-75.46168,5.04215],[-75.46158,5.04254],[-75.46201,5.043],[-75.46153,5.04327],[-75.46148,5.04351],[-75.46157,5.04388],[-75.46196,5.04416],[-75.46174,5.04461],[-75.4615,5.0445],[-75.46134,5.04538],[-75.45951,5.04558],[-75.45909,5.04518],[-75.45892,5.04466],[-75.4584,5.04449],[-75.45706,5.04291],[-75.45663,5.04213],[-75.4561,5.04171],[-75.45632,5.0418],[-75.45637,5.04124],[-75.45594,5.04057],[-75.45468,5.03938],[-75.45416,5.03931],[-75.45395,5.03875],[-75.45357,5.03839],[-75.45381,5.03745],[-75.45379,5.03718],[-75.45361,5.03716],[-75.45263,5.0378],[-75.45246,5.03813],[-75.45165,5.03805],[-75.45115,5.03872],[-75.44956,5.03948],[-75.44906,5.03945],[-75.44826,5.03979],[-75.44812,5.04033],[-75.44744,5.04081],[-75.44717,5.0408],[-75.4464,5.04165],[-75.44543,5.04195],[-75.44528,5.04233],[-75.44404,5.04197],[-75.44304,5.04205],[-75.44252,5.04163],[-75.44008,5.04154],[-75.43997,5.04235],[-75.43829,5.0432],[-75.43686,5.04585],[-75.43608,5.0464],[-75.43524,5.04639],[-75.43443,5.04733],[-75.43302,5.0477],[-75.43098,5.04788],[-75.43019,5.04768],[-75.42996,5.04727],[-75.43024,5.04618],[-75.42966,5.04606],[-75.42947,5.04558],[-75.42965,5.04474],[-75.42945,5.04403],[-75.42924,5.04402],[-75.42917,5.04436],[-75.42747,5.04376],[-75.42755,5.04438],[-75.42713,5.04467],[-75.42663,5.04434],[-75.42707,5.04385],[-75.42708,5.04357],[-75.42673,5.04305],[-75.42589,5.04342],[-75.42603,5.04308],[-75.42589,5.04285],[-75.42476,5.04371],[-75.42522,5.04431],[-75.42486,5.04468],[-75.42472,5.04434],[-75.42228,5.04396],[-75.42176,5.04405],[-75.4212,5.04447],[-75.42032,5.0444],[-75.42074,5.04273],[-75.42128,5.04228],[-75.42106,5.04167],[-75.42131,5.04064],[-75.42204,5.04018],[-75.42313,5.03987],[-75.42381,5.03938],[-75.42348,5.03851],[-75.42412,5.03845],[-75.42389,5.03739],[-75.42465,5.03693],[-75.42507,5.03597],[-75.42435,5.03493],[-75.42182,5.03321],[-75.42082,5.03291],[-75.42043,5.0322],[-75.42084,5.03181],[-75.42165,5.03275],[-75.42234,5.03256],[-75.42453,5.03264],[-75.42466,5.0323],[-75.42426,5.03165],[-75.42436,5.03128],[-75.42552,5.03229],[-75.42591,5.03229],[-75.42617,5.03163],[-75.42594,5.03114],[-75.42559,5.03097],[-75.42548,5.03045],[-75.42573,5.0301],[-75.42546,5.02959],[-75.42599,5.02936],[-75.42916,5.02987],[-75.43039,5.02983],[-75.43054,5.02864],[-75.43227,5.02842],[-75.43412,5.02943],[-75.4344,5.03215],[-75.43463,5.03223],[-75.43789,5.03138],[-75.43764,5.03262],[-75.43815,5.03474],[-75.43841,5.03471],[-75.43868,5.0356],[-75.43901,5.03584],[-75.44032,5.03594],[-75.44106,5.0365],[-75.44185,5.03615],[-75.44248,5.03677],[-75.44268,5.03663],[-75.4423,5.03511],[-75.44183,5.03436],[-75.44173,5.03339],[-75.44072,5.03277],[-75.44003,5.03194],[-75.44005,5.03092],[-75.44129,5.0306],[-75.44256,5.03109],[-75.44331,5.03074],[-75.44431,5.02915],[-75.44321,5.02875],[-75.44319,5.0278],[-75.44377,5.02789],[-75.44433,5.02824],[-75.44479,5.02816],[-75.44553,5.02866],[-75.44559,5.02897],[-75.44594,5.02865],[-75.44704,5.02896],[-75.44737,5.0294],[-75.45351,5.02938],[-75.45349,5.02916],[-75.45279,5.02917],[-75.45292,5.02849],[-75.45255,5.02838],[-75.45216,5.02829],[-75.45195,5.02863],[-75.44902,5.02857],[-75.44787,5.02809],[-75.44668,5.02793],[-75.44462,5.0271],[-75.44333,5.02703],[-75.44169,5.02634],[-75.43944,5.0263],[-75.43907,5.02648],[-75.43812,5.02612],[-75.43774,5.02617],[-75.4371,5.02577],[-75.43733,5.02543],[-75.43706,5.0252],[-75.43683,5.02531],[-75.43546,5.02511],[-75.43708,5.02392],[-75.43819,5.02253],[-75.43915,5.02377],[-75.44069,5.02497],[-75.44257,5.02527],[-75.44398,5.02573],[-75.44623,5.02579],[-75.44684,5.02614],[-75.44984,5.02647],[-75.45087,5.02702],[-75.45193,5.02703],[-75.45257,5.02684],[-75.45393,5.02725],[-75.45496,5.02782],[-75.45973,5.0292],[-75.46081,5.02903],[-75.46135,5.02871],[-75.46173,5.02915],[-75.46262,5.0289],[-75.46353,5.02897],[-75.46381,5.02853],[-75.4641,5.02844],[-75.46519,5.02874],[-75.46637,5.02847],[-75.46696,5.02872],[-75.46779,5.02853],[-75.46893,5.02797],[-75.46953,5.0281],[-75.47008,5.02789],[-75.47061,5.02809],[-75.4713,5.028],[-75.47376,5.02837],[-75.47428,5.02857],[-75.47435,5.02904],[-75.47451,5.02908],[-75.47469,5.0289],[-75.47452,5.02816],[-75.47525,5.02741]]]}},{"type":"Feature","id":406053,"properties":{"id":406053,"name":"Comuna Universitaria","urban":true},"geometry":{"type":"Polygon","coordinates":[[[-75.51021,5.05034],[-75.50966,5.05059],[-75.50926,5.05047],[-75.50863,5.05103],[-75.50788,5.0511],[-75.50742,5.05091],[-75.50723,5.05115],[-75.50973,5.05311],[-75.50873,5.05397],[-75.50852,5.05527],[-75.50756,5.05471],[-75.50754,5.05499],[-75.50722,5.05507],[-75.50606,5.05436],[-75.50514,5.05509],[-75.50495,5.05439],[-75.50363,5.05418],[-75.5032,5.0544],[-75.50271,5.05389],[-75.50113,5.05508],[-75.50097,5.05574],[-75.50013,5.0565],[-75.49882,5.05681],[-75.49821,5.05672],[-75.49644,5.05695],[-75.49554,5.05762],[-75.49509,5.05761],[-75.49498,5.05739],[-75.49412,5.05739],[-75.49277,5.05824],[-75.49327,5.05755],[-75.49363,5.05636],[-75.49502,5.05539],[-75.49444,5.05507],[-75.49317,5.05331],[-75.49308,5.05245],[-75.49327,5.05211],[-75.49423,5.05199],[-75.4957,5.05039],[-75.49609,5.05069],[-75.49674,5.05056],[-75.49722,5.05118],[-75.49731,5.05003],[-75.49814,5.04983],[-75.49867,5.049],[-75.49851,5.04834],[-75.49801,5.04815],[-75.49803,5.04791],[-75.49879,5.04784],[-75.49971,5.04691],[-75.50005,5.04679],[-75.49985,5.04415],[-75.49889,5.0436],[-75.49872,5.04382],[-75.49782,5.04298],[-75.49731,5.04327],[-75.49688,5.04278],[-75.4933,5.04182],[-75.49348,5.04085],[-75.49405,5.04033],[-75.49473,5.04006],[-75.49651,5.04019],[-75.49718,5.03936],[-75.49774,5.03915],[-75.49928,5.03914],[-75.50187,5.03987],[-75.5023,5.04036],[-75.50288,5.0419],[-75.50342,5.0421],[-75.50479,5.04216],[-75.50507,5.04417],[-75.50526,5.04452],[-75.50808,5.04608],[-75.50812,5.04752],[-75.50851,5.04789],[-75.50916,5.04787],[-75.50951,5.04823],[-75.50952,5.04932],[-75.51021,5.05034]]]}},{"type":"Feature","id":19120122,"properties":{"id":19120122,"name":"Manizales","urban":false},"geometry":{"type":"Polygon","coordinates":[[[-75.4609,7.83913],[-75.46194,7.83843],[-75.4598,7.83472],[-75.46006,7.83405],[-75.46086,7.83365],[-75.46139,7.83232],[-75.46245,7.83178],[-75.46258,7.83125],[-75.46204,7.829],[-75.46257,7.82753],[-75.46403,7.8258],[-75.46282,7.82341],[-75.46282,7.82275],[-75.46242,7.82142],[-75.46401,7.81823],[-75.46413,7.81464],[-75.46385,7.81225],[-75.46451,7.80853],[-75.46569,7.80494],[-75.46435,7.80148],[-75.46408,7.80016],[-75.46647,7.79789],[-75.46793,7.79576],[-75.46858,7.7927],[-75.46911,7.79124],[-75.46884,7.79084],[-75.46685,7.79071],[-75.46578,7.78979],[-75.46537,7.78913],[-75.46363,7.78435],[-75.46229,7.78276],[-75.46189,7.7817],[-75.46202,7.7817],[-75.46188,7.7809],[-75.46255,7.78063],[-75.46308,7.77996],[-75.46361,7.7797],[-75.46374,7.77916],[-75.46428,7.77903],[-75.46387,7.77784],[-75.4644,7.77677],[-75.4644,7.77531],[-75.4636,7.77558],[-75.46346,7.77531],[-75.46399,7.77451],[-75.46319,7.77412],[-75.46319,7.77345],[-75.46346,7.77319],[-75.46386,7.77332],[-75.46412,7.77305],[-75.46492,7.77345],[-75.46532,7.77331],[-75.46585,7.77278],[-75.46599,7.77212],[-75.46705,7.77118],[-75.46745,7.77118],[-75.46812,7.77198],[-75.46851,7.77171],[-75.46918,7.77025],[-75.47011,7.76931],[-75.47024,7.76878],[-75.47144,7.76878],[-75.47157,7.76838],[-75.4713,7.76798],[-75.47183,7.76771],[-75.4729,7.76797],[-75.4733,7.76771],[-75.47329,7.76718],[-75.47263,7.76705],[-75.47249,7.76665],[-75.47262,7.76598],[-75.47183,7.76598],[-75.47129,7.76652],[-75.47116,7.76625],[-75.47142,7.76466],[-75.47089,7.764],[-75.47089,7.76373],[-75.47168,7.76359],[-75.47208,7.76293],[-75.47262,7.76306],[-75.47275,7.76293],[-75.47275,7.76266],[-75.47235,7.76226],[-75.47248,7.76186],[-75.47221,7.7612],[-75.47221,7.7604],[-75.47167,7.75881],[-75.47218,7.7527],[-75.47191,7.75137],[-75.47188,7.7497],[-75.4714,7.74909],[-75.4703,7.7487],[-75.47105,7.74722],[-75.47023,7.74688],[-75.46991,7.7464],[-75.46949,7.74542],[-75.46911,7.74362],[-75.46975,7.74194],[-75.46958,7.74161],[-75.46988,7.74132],[-75.46937,7.74058],[-75.46876,7.74083],[-75.46841,7.74028],[-75.46768,7.74042],[-75.46715,7.74078],[-75.46658,7.74067],[-75.46612,7.74032],[-75.46544,7.74074],[-75.46495,7.74068],[-75.46381,7.74165],[-75.46312,7.74149],[-75.46277,7.74178],[-75.46215,7.74315],[-75.46184,7.74298],[-75.46152,7.7431],[-75.46072,7.74393],[-75.46061,7.74358],[-75.46033,7.74361],[-75.4598,7.74418],[-75.45949,7.74436],[-75.45924,7.74416],[-75.45873,7.74464],[-75.45793,7.74447],[-75.45613,7.74348],[-75.45556,7.74359],[-75.45516,7.74439],[-75.45543,7.74716],[-75.45529,7.74735],[-75.45423,7.74683],[-75.45356,7.74601],[-75.45264,7.74638],[-75.45164,7.74587],[-75.45037,7.74581],[-75.44998,7.74533],[-75.45001,7.74508],[-75.4507,7.7448],[-75.45117,7.74491],[-75.45138,7.74469],[-75.45152,7.74405],[-75.45138,7.74358],[-75.45039,7.74362],[-75.44935,7.74405],[-75.4484,7.74524],[-75.44789,7.74531],[-75.44764,7.74569],[-75.44748,7.74638],[-75.44766,7.74819],[-75.44583,7.74919],[-75.44476,7.75053],[-75.44239,7.74906],[-75.43729,7.74797],[-75.43649,7.74807],[-75.43594,7.74861],[-75.43632,7.74929],[-75.43775,7.75087],[-75.4377,7.75108],[-75.43734,7.75121],[-75.43733,7.75159],[-75.43706,7.75166],[-75.43609,7.7515],[-75.42948,7.7478],[-75.42852,7.74782],[-75.42847,7.74887],[-75.42879,7.75047],[-75.42824,7.7515],[-75.42894,7.75216],[-75.42908,7.75288],[-75.43017,7.7539],[-75.43033,7.75462],[-75.43013,7.75845],[-75.42901,7.7601],[-75.4289,7.76078],[-75.42789,7.76283],[-75.42698,7.76304],[-75.42673,7.76339],[-75.42669,7.7658],[-75.42651,7.76612],[-75.4256,7.76672],[-75.42465,7.76666],[-75.42379,7.76712],[-75.42285,7.76634],[-75.42207,7.76492],[-75.42113,7.76428],[-75.42013,7.76319],[-75.41987,7.76315],[-75.41971,7.76337],[-75.41973,7.76427],[-75.41946,7.76485],[-75.41976,7.76597],[-75.41941,7.76691],[-75.41979,7.76722],[-75.42073,7.76736],[-75.42073,7.76793],[-75.4204,7.76865],[-75.42,7.76886],[-75.41967,7.76873],[-75.41886,7.76726],[-75.41868,7.76727],[-75.41866,7.76886],[-75.41889,7.77051],[-75.41714,7.77049],[-75.41687,7.77164],[-75.41639,7.77158],[-75.41561,7.77098],[-75.41526,7.77149],[-75.41535,7.7721],[-75.41749,7.77297],[-75.41791,7.77349],[-75.41782,7.77385],[-75.41712,7.77461],[-75.41773,7.77537],[-75.41759,7.77576],[-75.41687,7.77609],[-75.41612,7.77713],[-75.41561,7.77687],[-75.41572,7.77602],[-75.41555,7.77579],[-75.4151,7.7758],[-75.41453,7.77612],[-75.41417,7.77674],[-75.41493,7.77756],[-75.41445,7.77789],[-75.41402,7.77761],[-75.41382,7.77672],[-75.4132,7.77644],[-75.41302,7.77675],[-75.41318,7.77743],[-75.41286,7.77901],[-75.41225,7.77895],[-75.41172,7.77824],[-75.41126,7.77843],[-75.41091,7.77895],[-75.40936,7.77885],[-75.40937,7.7801],[-75.40892,7.78065],[-75.40899,7.78172],[-75.40882,7.78191],[-75.407,7.78204],[-75.406,7.78074],[-75.40475,7.77966],[-75.40436,7.77953],[-75.40393,7.78054],[-75.40399,7.7816],[-75.40494,7.78278],[-75.40533,7.78368],[-75.40393,7.78413],[-75.40296,7.78391],[-75.40292,7.78345],[-75.40382,7.78283],[-75.40375,7.78244],[-75.40275,7.78292],[-75.40164,7.78316],[-75.40127,7.78269],[-75.4013,7.78241],[-75.40185,7.78192],[-75.40182,7.78148],[-75.401,7.78115],[-75.40076,7.78122],[-75.40048,7.78169],[-75.40087,7.78242],[-75.40082,7.78272],[-75.40056,7.78297],[-75.40009,7.78296],[-75.39993,7.7825],[-75.39995,7.78109],[-75.39972,7.78092],[-75.39821,7.78107],[-75.3982,7.78006],[-75.39804,7.77985],[-75.39719,7.7797],[-75.39678,7.77895],[-75.39612,7.77858],[-75.39585,7.77801],[-75.39563,7.77786],[-75.39458,7.77787],[-75.39396,7.77746],[-75.39355,7.77755],[-75.39246,7.7785],[-75.39226,7.77931],[-75.39226,7.78094],[-75.3913,7.7822],[-75.39006,7.78244],[-75.38919,7.78169],[-75.38848,7.78188],[-75.38836,7.78174],[-75.38867,7.78118],[-75.38863,7.78076],[-75.38817,7.78058],[-75.38781,7.78087],[-75.38774,7.78189],[-75.38843,7.78306],[-75.38856,7.7835],[-75.38846,7.78414],[-75.38904,7.78511],[-75.38833,7.78553],[-75.38801,7.78602],[-75.38538,7.78621],[-75.38456,7.78709],[-75.38439,7.78743],[-75.38453,7.7879],[-75.38587,7.79039],[-75.38551,7.79141],[-75.38384,7.79252],[-75.38327,7.79257],[-75.3824,7.79216],[-75.38204,7.79286],[-75.38166,7.79302],[-75.38102,7.79157],[-75.37971,7.79154],[-75.37936,7.79134],[-75.37919,7.79076],[-75.37955,7.78957],[-75.37854,7.78909],[-75.37887,7.78856],[-75.37875,7.7883],[-75.37629,7.78841],[-75.37514,7.78867],[-75.37475,7.78912],[-75.37476,7.78974],[-75.37585,7.79136],[-75.37579,7.79239],[-75.37659,7.79317],[-75.37696,7.79402],[-75.37664,7.7942],[-75.37539,7.79403],[-75.37452,7.79362],[-75.37388,7.7936],[-75.37321,7.79387],[-75.37308,7.79409],[-75.37321,7.79611],[-75.37303,7.79634],[-75.3784,7.80314],[-75.38211,7.8071],[-75.38224,7.8075],[-75.38206,7.80785],[-75.38155,7.80788],[-75.36817,7.80802],[-75.36377,7.80943],[-75.36307,7.80946],[-75.36282,7.80994],[-75.36325,7.81066],[-75.36361,7.81547],[-75.36394,7.81631],[-75.364,7.82373],[-75.36348,7.8265],[-75.36315,7.82654],[-75.36284,7.82616],[-75.36243,7.82602],[-75.36091,7.82583],[-75.36043,7.82537],[-75.35928,7.82551],[-75.35795,7.82902],[-75.35784,7.83295],[-75.35742,7.83363],[-75.35714,7.83353],[-75.35666,7.83251],[-75.35621,7.83237],[-75.35591,7.83267],[-75.35575,7.83437],[-75.35367,7.83494],[-75.35301,7.83644],[-75.35309,7.83757],[-75.3517,7.83815],[-75.35068,7.83977],[-75.35374,7.84577],[-75.36148,7.84208],[-75.36604,7.83876],[-75.36675,7.84065],[-75.36695,7.84402],[-75.37198,7.85251],[-75.37376,7.85355],[-75.37731,7.85367],[-75.37853,7.85029],[-75.38298,7.85029],[-75.39286,7.86057],[-75.39406,7.86203],[-75.39406,7.8619],[-75.39486,7.8619],[-75.3958,7.86256],[-75.39686,7.86282],[-75.39713,7.86269],[-75.39766,7.86215],[-75.39818,7.85976],[-75.39991,7.8571],[-75.40406,7.86293],[-75.40498,7.8612],[-75.40538,7.85907],[-75.40578,7.85814],[-75.40604,7.85801],[-75.40831,7.85867],[-75.40884,7.85853],[-75.41043,7.856],[-75.41123,7.85414],[-75.41122,7.85348],[-75.41149,7.85334],[-75.41149,7.85294],[-75.41189,7.85307],[-75.41269,7.854],[-75.41335,7.85121],[-75.41455,7.85187],[-75.41562,7.852],[-75.41628,7.85266],[-75.41788,7.85119],[-75.41734,7.85013],[-75.41534,7.84855],[-75.41427,7.84722],[-75.41466,7.84642],[-75.41453,7.84563],[-75.41466,7.84523],[-75.41559,7.84443],[-75.41599,7.84376],[-75.41745,7.84349],[-75.41772,7.84322],[-75.41692,7.8423],[-75.41692,7.84176],[-75.41731,7.84123],[-75.41784,7.84096],[-75.41825,7.84123],[-75.41851,7.84176],[-75.41931,7.84136],[-75.41971,7.84083],[-75.41971,7.84029],[-75.41931,7.83963],[-75.4193,7.83923],[-75.41864,7.8387],[-75.4185,7.83804],[-75.41824,7.83804],[-75.41796,7.83671],[-75.41743,7.83538],[-75.41743,7.83472],[-75.41782,7.83339],[-75.41768,7.8322],[-75.41782,7.83166],[-75.41835,7.831],[-75.41928,7.83046],[-75.41981,7.83099],[-75.42008,7.83099],[-75.42034,7.83033],[-75.42141,7.82979],[-75.42221,7.82979],[-75.42314,7.83005],[-75.42381,7.82992],[-75.42473,7.82819],[-75.42512,7.82593],[-75.42592,7.82486],[-75.42685,7.82446],[-75.42805,7.82353],[-75.42804,7.8222],[-75.42884,7.8218],[-75.42938,7.82179],[-75.43097,7.82113],[-75.43151,7.82126],[-75.43191,7.82112],[-75.43244,7.82046],[-75.43323,7.82019],[-75.43523,7.82045],[-75.4375,7.81991],[-75.4379,7.82004],[-75.43897,7.8211],[-75.43923,7.8211],[-75.44043,7.82003],[-75.44149,7.81989],[-75.44216,7.82003],[-75.44296,7.82109],[-75.44591,7.82666],[-75.44605,7.82719],[-75.44513,7.83025],[-75.4458,7.83237],[-75.447,7.83343],[-75.44714,7.83635],[-75.44755,7.83741],[-75.44808,7.83808],[-75.44982,7.8398],[-75.45554,7.83832],[-75.45635,7.84018],[-75.45702,7.84017],[-75.45848,7.83977],[-75.45888,7.84043],[-75.45915,7.84043],[-75.4609,7.83913]]]}},{"type":"Feature","id":19120119,"properties":{"id":19120119,"name":"Nicaragua","urban":false},"geometry":{"type":"Polygon","coordinates":[[[-75.42789,7.76283],[-75.42698,7.76304],[-75.42673,7.76339],[-75.42669,7.7658],[-75.42651,7.76612],[-75.4256,7.76672],[-75.42465,7.76666],[-75.42379,7.76712],[-75.42285,7.76634],[-75.42207,7.76492],[-75.42113,7.76428],[-75.42013,7.76319],[-75.41987,7.76315],[-75.41971,7.76337],[-75.41973,7.76427],[-75.41946,7.76485],[-75.41976,7.76597],[-75.41941,7.76691],[-75.41979,7.76722],[-75.42073,7.76736],[-75.42073,7.76793],[-75.4204,7.76865],[-75.42,7.76886],[-75.41967,7.76873],[-75.41886,7.76726],[-75.41868,7.76727],[-75.41866,7.76886],[-75.41889,7.77051],[-75.41714,7.77049],[-75.41687,7.77164],[-75.41639,7.77158],[-75.41561,7.77098],[-75.41526,7.77149],[-75.41535,7.7721],[-75.41749,7.77297],[-75.41791,7.77349],[-75.41782,7.77385],[-75.41712,7.77461],[-75.41773,7.77537],[-75.41759,7.77576],[-75.41687,7.77609],[-75.41612,7.77713],[-75.41561,7.77687],[-75.41572,7.77602],[-75.41555,7.77579],[-75.4151,7.7758],[-75.41453,7.77612],[-75.41417,7.77674],[-75.41493,7.77756],[-75.41445,7.77789],[-75.41402,7.77761],[-75.41382,7.77672],[-75.4132,7.77644],[-75.41302,7.77675],[-75.41318,7.77743],[-75.41286,7.77901],[-75.41225,7.77895],[-75.41172,7.77824],[-75.41126,7.77843],[-75.41091,7.77895],[-75.40936,7.77885],[-75.40937,7.7801],[-75.40892,7.78065],[-75.40899,7.78172],[-75.40882,7.78191],[-75.407,7.78204],[-75.406,7.78074],[-75.40475,7.77966],[-75.40436,7.77953],[-75.40393,7.78054],[-75.40399,7.7816],[-75.40494,7.78278],[-75.40534,7.78353],[-75.4052,7.78381],[-75.40393,7.78413],[-75.40296,7.78391],[-75.40292,7.78345],[-75.40382,7.78283],[-75.40375,7.78244],[-75.40183,7.78322],[-75.40144,7.78306],[-75.4013,7.78241],[-75.40185,7.78192],[-75.40182,7.78148],[-75.401,7.78115],[-75.40076,7.78122],[-75.40048,7.78169],[-75.40087,7.78242],[-75.40082,7.78272],[-75.40056,7.78297],[-75.40009,7.78296],[-75.39993,7.7825],[-75.39995,7.78109],[-75.39972,7.78092],[-75.39821,7.78107],[-75.3982,7.78006],[-75.39804,7.77985],[-75.39719,7.7797],[-75.39678,7.77895],[-75.39612,7.77858],[-75.39563,7.77786],[-75.39458,7.77787],[-75.39396,7.77746],[-75.39315,7.77779],[-75.39246,7.7785],[-75.39226,7.77931],[-75.39226,7.78094],[-75.3913,7.7822],[-75.39006,7.78244],[-75.38919,7.78169],[-75.38848,7.78188],[-75.38836,7.78174],[-75.38874,7.78095],[-75.38848,7.7806],[-75.38795,7.78067],[-75.38774,7.78189],[-75.38843,7.78306],[-75.38856,7.7835],[-75.38846,7.78414],[-75.38904,7.78511],[-75.38833,7.78553],[-75.38801,7.78602],[-75.38668,7.78623],[-75.38574,7.78612],[-75.38507,7.78641],[-75.38439,7.78743],[-75.38587,7.79039],[-75.38573,7.79109],[-75.38551,7.79141],[-75.38384,7.79252],[-75.38327,7.79257],[-75.38254,7.78784],[-75.38194,7.78575],[-75.38187,7.78451],[-75.38117,7.78346],[-75.37463,7.77686],[-75.37364,7.77642],[-75.37463,7.774],[-75.37556,7.77235],[-75.3756,7.77009],[-75.37495,7.769],[-75.37509,7.76832],[-75.37693,7.76839],[-75.37726,7.76818],[-75.37715,7.76683],[-75.37584,7.76441],[-75.3759,7.76345],[-75.37621,7.76295],[-75.37625,7.76243],[-75.37596,7.76199],[-75.37535,7.76145],[-75.37336,7.76062],[-75.37299,7.76016],[-75.37271,7.75876],[-75.37242,7.75848],[-75.37207,7.75845],[-75.37172,7.75912],[-75.37046,7.75956],[-75.3704,7.76043],[-75.36987,7.76105],[-75.37004,7.76199],[-75.36955,7.76304],[-75.36949,7.76384],[-75.36905,7.76422],[-75.36821,7.76416],[-75.36634,7.76449],[-75.36314,7.76443],[-75.36263,7.76416],[-75.3614,7.76399],[-75.36024,7.76337],[-75.35859,7.76331],[-75.35795,7.76304],[-75.35734,7.7625],[-75.35532,7.75989],[-75.35531,7.75949],[-75.35555,7.75931],[-75.35629,7.75927],[-75.35673,7.75901],[-75.35684,7.75846],[-75.35674,7.7546],[-75.35665,7.75424],[-75.35635,7.75405],[-75.35507,7.75397],[-75.35446,7.75342],[-75.35407,7.75332],[-75.35285,7.75509],[-75.35246,7.75687],[-75.352,7.75721],[-75.35038,7.75689],[-75.34993,7.75571],[-75.34949,7.75096],[-75.35014,7.7471],[-75.35107,7.74524],[-75.35199,7.74111],[-75.35144,7.73633],[-75.34917,7.73488],[-75.34556,7.73037],[-75.34489,7.72984],[-75.34155,7.72533],[-75.34035,7.72427],[-75.34088,7.72387],[-75.34327,7.72068],[-75.34406,7.72001],[-75.34286,7.71789],[-75.34245,7.71603],[-75.34232,7.7143],[-75.34284,7.71204],[-75.34058,7.71112],[-75.33898,7.71073],[-75.33883,7.70714],[-75.3383,7.70621],[-75.33847,7.70561],[-75.33872,7.70542],[-75.3391,7.70558],[-75.33945,7.7062],[-75.34019,7.70612],[-75.34018,7.70543],[-75.34082,7.70441],[-75.342,7.7038],[-75.34195,7.70312],[-75.34326,7.70296],[-75.34356,7.70261],[-75.3433,7.70207],[-75.34431,7.70182],[-75.34455,7.70122],[-75.34564,7.70095],[-75.34578,7.70206],[-75.34629,7.70172],[-75.34636,7.70126],[-75.34683,7.70151],[-75.34694,7.70113],[-75.3436,7.69955],[-75.34212,7.69397],[-75.34185,7.69185],[-75.34345,7.69238],[-75.34478,7.69237],[-75.34959,7.69501],[-75.35186,7.69713],[-75.35146,7.69846],[-75.35133,7.70072],[-75.35254,7.70378],[-75.35294,7.70311],[-75.35347,7.70298],[-75.35387,7.70324],[-75.35481,7.70457],[-75.35601,7.70549],[-75.35734,7.70629],[-75.35894,7.70655],[-75.36346,7.70175],[-75.36332,7.70175],[-75.36385,7.69989],[-75.36783,7.6939],[-75.37609,7.69547],[-75.38222,7.69571],[-75.38716,7.69902],[-75.38983,7.70114],[-75.39772,7.70988],[-75.40157,7.70775],[-75.40277,7.70787],[-75.40424,7.70774],[-75.40424,7.70827],[-75.4049,7.70853],[-75.40504,7.70893],[-75.40477,7.70946],[-75.40504,7.71066],[-75.40492,7.71185],[-75.40692,7.7153],[-75.40853,7.71649],[-75.41279,7.71834],[-75.41362,7.71896],[-75.41362,7.71966],[-75.41405,7.72049],[-75.41403,7.721],[-75.41434,7.72183],[-75.41499,7.72183],[-75.41499,7.72207],[-75.41436,7.72284],[-75.41409,7.7229],[-75.41379,7.72261],[-75.41333,7.72317],[-75.41371,7.72405],[-75.41378,7.72483],[-75.4147,7.72517],[-75.41464,7.72568],[-75.41405,7.72607],[-75.41456,7.72641],[-75.41452,7.72705],[-75.41539,7.72685],[-75.41567,7.72709],[-75.41533,7.72857],[-75.41683,7.72866],[-75.41644,7.729],[-75.41649,7.72974],[-75.41568,7.73006],[-75.41516,7.72987],[-75.41481,7.72998],[-75.41487,7.73147],[-75.41521,7.73186],[-75.41652,7.73202],[-75.41662,7.73258],[-75.41633,7.73296],[-75.41777,7.73374],[-75.42084,7.73492],[-75.42351,7.73638],[-75.42537,7.7369],[-75.4259,7.73584],[-75.4259,7.73491],[-75.42522,7.73146],[-75.42522,7.73026],[-75.42696,7.73172],[-75.42723,7.73264],[-75.42803,7.73278],[-75.42922,7.73224],[-75.42909,7.73171],[-75.42802,7.73038],[-75.42801,7.72905],[-75.42748,7.7276],[-75.4288,7.72586],[-75.43,7.7252],[-75.43027,7.72679],[-75.43241,7.73024],[-75.43322,7.73223],[-75.43335,7.73302],[-75.43455,7.73236],[-75.43709,7.73354],[-75.43855,7.7346],[-75.43976,7.73659],[-75.44162,7.73605],[-75.44428,7.73259],[-75.44606,7.73079],[-75.4462,7.73092],[-75.44594,7.7314],[-75.44608,7.73183],[-75.4467,7.73201],[-75.44717,7.73179],[-75.44744,7.73223],[-75.44821,7.73202],[-75.44812,7.73315],[-75.44756,7.73332],[-75.44747,7.73351],[-75.44832,7.7342],[-75.4482,7.73488],[-75.44846,7.73629],[-75.44939,7.73687],[-75.4495,7.73717],[-75.44926,7.73791],[-75.44853,7.73833],[-75.44808,7.73923],[-75.44721,7.73903],[-75.44697,7.73926],[-75.44737,7.74034],[-75.44855,7.74048],[-75.44893,7.74074],[-75.44843,7.742],[-75.4481,7.74209],[-75.4481,7.74163],[-75.44776,7.74146],[-75.44746,7.74198],[-75.44789,7.74293],[-75.44883,7.74356],[-75.44889,7.74383],[-75.44851,7.74431],[-75.4481,7.7445],[-75.44764,7.74569],[-75.44748,7.74638],[-75.44766,7.74819],[-75.44583,7.74919],[-75.44476,7.75053],[-75.44239,7.74906],[-75.43787,7.74802],[-75.43649,7.74807],[-75.43594,7.74861],[-75.43632,7.74929],[-75.43775,7.75087],[-75.4377,7.75108],[-75.43734,7.75121],[-75.43733,7.75159],[-75.43706,7.75166],[-75.43609,7.7515],[-75.42948,7.7478],[-75.42852,7.74782],[-75.42847,7.74887],[-75.42879,7.75047],[-75.42824,7.7515],[-75.42894,7.75216],[-75.42908,7.75288],[-75.43017,7.7539],[-75.43033,7.75462],[-75.43013,7.75845],[-75.42901,7.7601],[-75.4289,7.76078],[-75.42789,7.76283]]]}},{"type":"Feature","id":19120120,"properties":{"id":19120120,"name":"San José del Man","urban":false},"geometry":{"type":"Polygon","coordinates":[[[-75.37303,7.79634],[-75.3784,7.80314],[-75.38211,7.8071],[-75.38224,7.8075],[-75.38206,7.80785],[-75.36817,7.80802],[-75.36377,7.80943],[-75.36307,7.80946],[-75.36282,7.80994],[-75.36325,7.81066],[-75.36361,7.81547],[-75.36394,7.81631],[-75.364,7.82373],[-75.36348,7.8265],[-75.36315,7.82654],[-75.36284,7.82616],[-75.36243,7.82602],[-75.36091,7.82583],[-75.36043,7.82537],[-75.35928,7.82551],[-75.35795,7.82902],[-75.35784,7.83295],[-75.35742,7.83363],[-75.35714,7.83353],[-75.35666,7.83251],[-75.35621,7.83237],[-75.35591,7.83267],[-75.35575,7.83437],[-75.35367,7.83494],[-75.35344,7.83523],[-75.35301,7.83644],[-75.35309,7.83757],[-75.35293,7.83776],[-75.3517,7.83815],[-75.35068,7.83977],[-75.35004,7.83982],[-75.34968,7.83949],[-75.34933,7.83956],[-75.349,7.83985],[-75.34865,7.84086],[-75.34775,7.84158],[-75.3469,7.84164],[-75.34464,7.84342],[-75.3436,7.84328],[-75.34104,7.84146],[-75.33754,7.84139],[-75.33744,7.84181],[-75.33822,7.8426],[-75.33835,7.84502],[-75.33884,7.84549],[-75.34175,7.84643],[-75.34222,7.84708],[-75.34204,7.84751],[-75.33949,7.84784],[-75.33895,7.84841],[-75.338,7.84854],[-75.33767,7.84918],[-75.33686,7.84972],[-75.33623,7.84974],[-75.33583,7.84953],[-75.33499,7.84975],[-75.3309,7.84676],[-75.32933,7.84628],[-75.32909,7.84591],[-75.32831,7.84562],[-75.32739,7.84606],[-75.32658,7.84594],[-75.32425,7.84426],[-75.32219,7.84411],[-75.32148,7.84366],[-75.31781,7.8435],[-75.31678,7.84288],[-75.31608,7.84286],[-75.31375,7.84386],[-75.31182,7.84518],[-75.31088,7.84609],[-75.31047,7.84754],[-75.30726,7.84396],[-75.3015,7.83494],[-75.3003,7.83415],[-75.29257,7.83204],[-75.2899,7.83085],[-75.29017,7.83072],[-75.29016,7.82978],[-75.29071,7.82917],[-75.29093,7.82861],[-75.29041,7.82795],[-75.29067,7.82647],[-75.29139,7.82577],[-75.29138,7.82518],[-75.29041,7.82387],[-75.29067,7.82368],[-75.29132,7.82411],[-75.29177,7.82411],[-75.29232,7.82221],[-75.29231,7.82134],[-75.29294,7.82123],[-75.29386,7.82023],[-75.29456,7.82002],[-75.29476,7.81979],[-75.29468,7.81907],[-75.29506,7.81909],[-75.29622,7.81974],[-75.29638,7.81965],[-75.29647,7.81895],[-75.29678,7.81886],[-75.29726,7.81975],[-75.29761,7.81992],[-75.29811,7.82058],[-75.29879,7.82072],[-75.29967,7.82046],[-75.29997,7.82018],[-75.30006,7.81934],[-75.30092,7.81866],[-75.30168,7.81757],[-75.30191,7.81751],[-75.30208,7.81784],[-75.30176,7.8185],[-75.30203,7.81892],[-75.30267,7.81893],[-75.30341,7.81923],[-75.30479,7.81903],[-75.30556,7.8181],[-75.30646,7.81795],[-75.30688,7.81943],[-75.30771,7.82056],[-75.30825,7.82077],[-75.30919,7.82055],[-75.31049,7.82087],[-75.31134,7.82073],[-75.31155,7.82033],[-75.31097,7.81946],[-75.31098,7.81917],[-75.31116,7.81903],[-75.31225,7.81911],[-75.31363,7.81839],[-75.31413,7.81847],[-75.31418,7.81806],[-75.3137,7.81752],[-75.31363,7.81711],[-75.31404,7.81602],[-75.31424,7.81596],[-75.31553,7.81672],[-75.31601,7.81647],[-75.31583,7.81547],[-75.31478,7.81495],[-75.31467,7.81446],[-75.31617,7.81379],[-75.31723,7.81387],[-75.31788,7.81332],[-75.3175,7.81258],[-75.31745,7.81175],[-75.31669,7.80974],[-75.315,7.80939],[-75.31381,7.80845],[-75.31337,7.80775],[-75.31335,7.80736],[-75.31442,7.80649],[-75.31727,7.80576],[-75.31829,7.80586],[-75.31904,7.80642],[-75.32053,7.80815],[-75.32201,7.80875],[-75.32256,7.80863],[-75.32263,7.80783],[-75.32286,7.80742],[-75.32333,7.80703],[-75.32426,7.80698],[-75.32565,7.80604],[-75.32568,7.80531],[-75.32604,7.80437],[-75.32747,7.80396],[-75.32864,7.80302],[-75.32876,7.80172],[-75.32842,7.80095],[-75.32811,7.80079],[-75.32759,7.80104],[-75.32746,7.8024],[-75.32651,7.80198],[-75.32563,7.80195],[-75.32542,7.80167],[-75.32574,7.80109],[-75.32618,7.80078],[-75.32736,7.80031],[-75.32849,7.80012],[-75.32877,7.79981],[-75.3285,7.79878],[-75.33015,7.79866],[-75.33036,7.7996],[-75.33061,7.79982],[-75.3314,7.79923],[-75.33176,7.79918],[-75.33449,7.79904],[-75.33537,7.79931],[-75.33572,7.79982],[-75.33531,7.80058],[-75.33531,7.80175],[-75.33584,7.803],[-75.33688,7.80247],[-75.33659,7.8015],[-75.33711,7.80096],[-75.33721,7.79905],[-75.33753,7.79868],[-75.33813,7.79882],[-75.33858,7.79986],[-75.33875,7.79978],[-75.33868,7.79875],[-75.3392,7.79858],[-75.33939,7.79922],[-75.33967,7.7994],[-75.34047,7.79874],[-75.341,7.79858],[-75.342,7.79966],[-75.34248,7.79961],[-75.34337,7.79914],[-75.34378,7.79967],[-75.34472,7.80006],[-75.34498,7.80079],[-75.34525,7.80101],[-75.34699,7.80128],[-75.34716,7.80104],[-75.34705,7.80001],[-75.34727,7.79895],[-75.34828,7.79888],[-75.34868,7.79865],[-75.34927,7.79748],[-75.34988,7.79705],[-75.35018,7.79703],[-75.35069,7.79751],[-75.3521,7.79792],[-75.35337,7.79767],[-75.35354,7.79646],[-75.35144,7.79307],[-75.3503,7.7903],[-75.34826,7.78648],[-75.34892,7.78453],[-75.35026,7.78172],[-75.34768,7.78181],[-75.3476,7.781],[-75.3488,7.77938],[-75.34707,7.77575],[-75.35014,7.77137],[-75.35166,7.77155],[-75.35266,7.76902],[-75.348,7.76758],[-75.34697,7.76716],[-75.34641,7.76667],[-75.34646,7.76569],[-75.35032,7.75746],[-75.35038,7.75689],[-75.352,7.75721],[-75.35246,7.75687],[-75.35285,7.75509],[-75.35407,7.75332],[-75.35446,7.75342],[-75.35507,7.75397],[-75.35635,7.75405],[-75.35665,7.75424],[-75.35682,7.7564],[-75.35673,7.75901],[-75.35629,7.75927],[-75.35555,7.75931],[-75.35531,7.75949],[-75.35532,7.75989],[-75.35734,7.7625],[-75.35859,7.76331],[-75.36024,7.76337],[-75.3614,7.76399],[-75.36263,7.76416],[-75.36314,7.76443],[-75.36634,7.76449],[-75.36821,7.76416],[-75.36905,7.76422],[-75.36949,7.76384],[-75.36955,7.76304],[-75.37004,7.76199],[-75.36987,7.76105],[-75.3704,7.76043],[-75.37046,7.75956],[-75.37172,7.75912],[-75.37207,7.75845],[-75.37242,7.75848],[-75.37271,7.75876],[-75.37299,7.76016],[-75.37336,7.76062],[-75.37535,7.76145],[-75.37625,7.76243],[-75.37621,7.76295],[-75.3759,7.76345],[-75.37584,7.76441],[-75.37715,7.76683],[-75.37726,7.76818],[-75.37693,7.76839],[-75.37509,7.76832],[-75.37495,7.769],[-75.3756,7.77009],[-75.37556,7.77235],[-75.37463,7.774],[-75.37364,7.77642],[-75.37463,7.77686],[-75.38117,7.78346],[-75.38187,7.78451],[-75.38194,7.78575],[-75.38254,7.78784],[-75.38327,7.79257],[-75.3824,7.79216],[-75.38204,7.79286],[-75.38166,7.79302],[-75.38102,7.79157],[-75.37971,7.79154],[-75.37936,7.79134],[-75.37919,7.79076],[-75.37955,7.78957],[-75.37854,7.78909],[-75.37887,7.78856],[-75.37875,7.7883],[-75.37843,7.7882],[-75.37564,7.78849],[-75.37514,7.78867],[-75.37475,7.78912],[-75.37476,7.78974],[-75.37585,7.79136],[-75.37579,7.79239],[-75.37659,7.79317],[-75.37696,7.79402],[-75.37664,7.7942],[-75.37539,7.79403],[-75.37452,7.79362],[-75.37388,7.7936],[-75.37321,7.79387],[-75.37308,7.79409],[-75.37321,7.79611],[-75.37303,7.79634]]]}},{"type":"Feature","id":19120121,"properties":{"id":19120121,"name":"Santa Lucia","urban":false},"geometry":{"type":"Polygon","coordinates":[[[-75.30837,7.89129],[-75.30701,7.89189],[-75.30667,7.89175],[-75.30645,7.89237],[-75.30583,7.89244],[-75.30564,7.89295],[-75.3047,7.89406],[-75.30448,7.89468],[-75.30304,7.89459],[-75.30226,7.89576],[-75.30069,7.89634],[-75.30038,7.89719],[-75.3001,7.89739],[-75.29933,7.8976],[-75.2986,7.89671],[-75.29801,7.89647],[-75.29721,7.89658],[-75.29653,7.89717],[-75.29572,7.89742],[-75.29422,7.89681],[-75.29316,7.89672],[-75.29373,7.89968],[-75.29359,7.9023],[-75.29429,7.90216],[-75.29554,7.90244],[-75.29651,7.90299],[-75.29859,7.90505],[-75.29985,7.90671],[-75.30054,7.90781],[-75.30082,7.90878],[-75.30056,7.91034],[-75.30078,7.91035],[-75.30075,7.91053],[-75.3003,7.91114],[-75.30086,7.91152],[-75.30081,7.91234],[-75.3012,7.91266],[-75.3025,7.91313],[-75.30372,7.91252],[-75.30447,7.9125],[-75.3051,7.91163],[-75.30558,7.91168],[-75.30618,7.91115],[-75.30694,7.91107],[-75.30756,7.91034],[-75.30837,7.91036],[-75.30828,7.90933],[-75.30845,7.90905],[-75.30886,7.909],[-75.30965,7.90936],[-75.30986,7.90925],[-75.31019,7.90894],[-75.31036,7.90791],[-75.3107,7.90749],[-75.31147,7.90741],[-75.31186,7.90766],[-75.31319,7.90661],[-75.31344,7.90738],[-75.31408,7.90746],[-75.31439,7.90703],[-75.31435,7.90606],[-75.31504,7.90511],[-75.31553,7.90507],[-75.31613,7.90559],[-75.31656,7.90548],[-75.31717,7.90576],[-75.31733,7.90513],[-75.31792,7.90494],[-75.31839,7.9057],[-75.31889,7.90553],[-75.31949,7.90561],[-75.31958,7.90491],[-75.31976,7.90473],[-75.32085,7.90453],[-75.32101,7.90382],[-75.32137,7.90352],[-75.322,7.90357],[-75.32274,7.90313],[-75.32476,7.90292],[-75.32519,7.90357],[-75.32618,7.90415],[-75.32715,7.90563],[-75.32789,7.90541],[-75.32826,7.90566],[-75.3295,7.90593],[-75.32978,7.90634],[-75.32979,7.90773],[-75.32924,7.91021],[-75.32924,7.91118],[-75.32966,7.9116],[-75.32994,7.9127],[-75.32995,7.91533],[-75.33106,7.91767],[-75.33107,7.91809],[-75.33134,7.91836],[-75.33149,7.9196],[-75.33204,7.92016],[-75.33218,7.92057],[-75.33357,7.92167],[-75.33316,7.92223],[-75.33413,7.92347],[-75.33434,7.92407],[-75.33601,7.92307],[-75.33614,7.922],[-75.33668,7.92174],[-75.33654,7.92081],[-75.33707,7.92054],[-75.33707,7.92014],[-75.33533,7.91669],[-75.33533,7.91629],[-75.33559,7.9151],[-75.33545,7.9143],[-75.33559,7.91364],[-75.33704,7.90951],[-75.33731,7.90925],[-75.3373,7.90778],[-75.33756,7.90712],[-75.33836,7.90645],[-75.33849,7.90605],[-75.33982,7.90472],[-75.34076,7.90432],[-75.34182,7.90352],[-75.34262,7.90365],[-75.34381,7.90192],[-75.34394,7.90059],[-75.34394,7.89992],[-75.3434,7.899],[-75.3434,7.8982],[-75.34353,7.89753],[-75.34419,7.8962],[-75.34271,7.89036],[-75.34069,7.88253],[-75.34029,7.8816],[-75.33855,7.87948],[-75.3464,7.87507],[-75.35198,7.87226],[-75.35653,7.87823],[-75.35733,7.87743],[-75.35813,7.87703],[-75.35879,7.87583],[-75.35919,7.87569],[-75.36052,7.87582],[-75.36186,7.87635],[-75.36346,7.87648],[-75.36519,7.87767],[-75.36533,7.87793],[-75.36599,7.87807],[-75.36839,7.87593],[-75.36958,7.87526],[-75.37172,7.87698],[-75.37506,7.87937],[-75.37533,7.87936],[-75.38344,7.87389],[-75.38277,7.87283],[-75.38422,7.86964],[-75.38516,7.86937],[-75.38542,7.8691],[-75.38622,7.86897],[-75.38689,7.86843],[-75.38809,7.86843],[-75.38875,7.86776],[-75.38994,7.86537],[-75.39034,7.86523],[-75.39127,7.8639],[-75.3918,7.86364],[-75.39206,7.86191],[-75.39286,7.86057],[-75.38298,7.85029],[-75.37853,7.85029],[-75.37731,7.85367],[-75.37376,7.85355],[-75.37198,7.85251],[-75.36695,7.84402],[-75.36675,7.84065],[-75.36604,7.83876],[-75.36148,7.84208],[-75.35374,7.84577],[-75.35068,7.83977],[-75.35004,7.83982],[-75.34968,7.83949],[-75.349,7.83985],[-75.34865,7.84086],[-75.34775,7.84158],[-75.3469,7.84164],[-75.34464,7.84342],[-75.3436,7.84328],[-75.34104,7.84146],[-75.33754,7.84139],[-75.33744,7.84181],[-75.33822,7.8426],[-75.33835,7.84502],[-75.33884,7.84549],[-75.34175,7.84643],[-75.34222,7.84708],[-75.34204,7.84751],[-75.33949,7.84784],[-75.33895,7.84841],[-75.338,7.84854],[-75.33767,7.84918],[-75.33686,7.84972],[-75.33623,7.84974],[-75.33583,7.84953],[-75.33499,7.84975],[-75.3309,7.84676],[-75.32933,7.84628],[-75.32909,7.84591],[-75.32831,7.84562],[-75.32739,7.84606],[-75.32658,7.84594],[-75.32425,7.84426],[-75.32219,7.84411],[-75.32148,7.84366],[-75.31781,7.8435],[-75.31678,7.84288],[-75.31608,7.84286],[-75.31375,7.84386],[-75.31182,7.84518],[-75.31088,7.84609],[-75.31047,7.84754],[-75.31048,7.85059],[-75.31074,7.85099],[-75.31248,7.85192],[-75.31395,7.85218],[-75.31662,7.8535],[-75.31715,7.85456],[-75.31795,7.85549],[-75.32062,7.85721],[-75.32316,7.85986],[-75.32317,7.86052],[-75.3229,7.86079],[-75.32264,7.86172],[-75.32291,7.86305],[-75.32438,7.86637],[-75.32492,7.86782],[-75.32492,7.86836],[-75.32386,7.87049],[-75.3228,7.87182],[-75.31801,7.87555],[-75.31482,7.87862],[-75.31217,7.88075],[-75.30498,7.88569],[-75.30605,7.88662],[-75.31006,7.88894],[-75.309,7.89073],[-75.30837,7.89129]]]}}]}